OBJECT_NAME,OBJECT_ID,EPOCH,MEAN_MOTION,ECCENTRICITY,INCLINATION,RA_OF_ASC_NODE,ARG_OF_PERICENTER,MEAN_ANOMALY,EPHEMERIS_TYPE,CLASSIFICATION_TYPE,NORAD_CAT_ID,ELEMENT_SET_NO,REV_AT_EPOCH,BSTAR,MEAN_MOTION_DOT,MEAN_MOTION_DDOT
BEIDOU-2 IGSO-5 (C10),2011-073A,2026-07-02T17:30:18.330912,1.00270596,.01145273,47.6496,271.3544,222.0502,141.5350,0,U,37948,999,5329,0,-.128E-5,0
LUCH 5A (SDCM/PRN 140),2011-074B,2026-07-11T14:47:04.758720,1.00272645,.00025575,8.8131,73.4475,59.2319,185.5811,0,U,37951,999,5329,0,-.53E-6,0
BEIDOU-2 G5 (C05),2012-008A,2026-07-11T20:40:50.715840,1.00269404,.00073727,3.6315,69.5392,269.9016,319.2161,0,U,38091,999,5261,0,.58E-6,0
BEIDOU-2 M3 (C11),2012-018A,2026-07-11T21:19:49.283904,1.86229895,.00209151,55.7352,304.0435,272.3940,87.3826,0,U,38250,999,9640,0,-.7E-6,0
BEIDOU-2 M4 (C12),2012-018B,2026-07-10T05:02:43.446048,1.86229687,.0012086,55.6367,303.3120,272.7348,87.1429,0,U,38251,999,9637,0,-.69E-6,0
SES-5 (EGNOS/PRN 136),2012-036A,2026-07-11T13:34:55.454304,1.00270748,.00019152,0.0459,320.2644,152.4522,25.4597,0,U,38652,999,4470,0,.39E-6,0
BEIDOU-2 M6 (C14),2012-050B,2026-07-10T23:51:02.668032,1.86230857,.00130316,56.5649,62.1074,1.0822,358.9856,0,U,38775,999,9375,0,-.45E-6,0
GSAT-10 (GAGAN/PRN 128),2012-051B,2026-07-11T21:32:50.581824,1.00271578,.00074036,0.1009,265.5087,187.4891,242.9839,0,U,38779,999,5034,0,-.16E-5,0
GPS BIIF-3  (PRN 24),2012-053A,2026-07-11T05:56:11.487552,2.00567820,.01817502,53.5891,142.6137,66.1505,295.7065,0,U,38833,999,9992,0,.21E-6,0
GSAT0103 (GALILEO-FM3),2012-055A,2026-07-09T18:23:01.882464,1.70473301,.00039458,55.8193,100.9259,309.3641,50.6099,0,U,38857,999,8539,0,-.19E-6,0
BEIDOU-2 G6 (C02),2012-059A,2026-07-11T22:57:21.785760,1.00274725,.0008854,4.4815,73.2546,327.1699,317.7276,0,U,38953,999,5015,0,-.176E-5,0
LUCH 5B (SDCM/PRN 125),2012-061A,2026-07-11T20:19:33.068064,1.00270805,.00037959,10.5335,49.6307,144.9936,23.7538,0,U,38977,999,4985,0,-.142E-5,0
COSMOS 2485 (747),2013-019A,2026-07-09T21:41:21.416640,2.13103398,.0022762,65.4318,72.8427,231.6212,128.2346,0,U,39155,999,10276,0,-.24E-6,0
GPS BIIF-4  (PRN 27),2013-023A,2026-07-11T02:45:34.430976,2.00563301,.01413886,54.4858,267.9980,51.1088,310.2120,0,U,39166,999,9636,0,.7E-7,0
IRNSS-1A,2013-034A,2026-07-10T17:17:25.712736,1.00281941,.0017567,35.7704,63.5328,183.4462,356.2994,0,U,39199,999,4760,0,.47E-6,0
GPS BIIF-5  (PRN 30),2014-008A,2026-07-11T14:46:08.273856,2.00561298,.0084133,53.6574,148.3234,231.5291,127.6792,0,U,39533,999,9017,0,.26E-6,0
ASTRA 5B (EGNOS/PRN 123),2014-011B,2026-07-11T22:37:59.039616,1.00272606,.00019933,0.0842,298.4202,190.6422,163.7786,0,U,39617,999,4491,0,.141E-5,0
COSMOS 2492 (754),2014-012A,2026-07-10T19:13:34.366080,2.13103316,.00102934,65.2825,313.1340,318.9623,40.9656,0,U,39620,999,9574,0,-.61E-6,0
IRNSS-1B,2014-017A,2026-07-10T17:17:10.737024,1.00274378,.00223275,28.8825,239.9967,191.5584,171.4704,0,U,39635,999,4503,0,.149E-5,0
LUCH 5V (SDCM/PRN 141),2014-023A,2026-07-11T17:28:16.853376,1.00275169,.00020223,5.1894,69.4840,77.0115,139.8925,0,U,39727,999,4460,0,-.269E-5,0
GPS BIIF-6  (PRN 06),2014-026A,2026-07-11T21:23:31.813152,2.00559063,.00381276,56.4851,330.5562,325.8600,33.8911,0,U,39741,999,8903,0,-.86E-6,0
COSMOS 2500 (755),2014-032A,2026-07-11T21:49:02.193024,2.13105969,.00081334,65.2172,312.8417,189.5491,170.4407,0,U,40001,999,9398,0,-.63E-6,0
GPS BIIF-7  (PRN 09),2014-045A,2026-07-11T11:37:40.026720,2.00559992,.00342538,55.3686,87.4969,118.3351,242.0458,0,U,40105,999,8656,0,-.38E-6,0
GSAT0201 (GALILEO 5),2014-050A,2026-07-10T01:18:12.802176,1.85519753,.16778151,48.8500,272.4979,180.2883,179.6634,0,U,40128,999,7874,0,-.22E-6,0
GSAT0202 (GALILEO 6),2014-050B,2026-07-11T09:18:20.936448,1.85520566,.16791779,48.8660,271.5287,181.0429,178.6225,0,U,40129,999,8093,0,-.14E-6,0
IRNSS-1C,2014-061A,2026-07-11T21:22:29.055648,1.00272869,.00221348,6.5787,88.4618,5.0900,239.8922,0,U,40269,999,4293,0,-.165E-5,0
GPS BIIF-8  (PRN 03),2014-068A,2026-07-10T20:29:47.969088,2.00574612,.00672832,57.0039,30.0437,71.1088,289.6754,0,U,40294,999,8568,0,-.5E-6,0
COSMOS 2501 (702K),2014-075A,2026-07-11T16:51:06.345792,2.13101292,.00226788,63.6181,189.5233,212.6195,147.2630,0,U,40315,999,9037,0,.102E-5,0
GPS BIIF-9  (PRN 26),2015-013A,2026-07-11T11:51:35.818848,2.00549847,.01102233,53.1664,203.1722,40.3419,320.5159,0,U,40534,999,8231,0,.101E-5,0
GSAT0203 (GALILEO 7),2015-017A,2026-07-10T02:08:55.601088,1.70476121,.00025033,56.7788,340.9723,258.1316,101.8369,0,U,40544,999,6959,0,-.8E-6,0
GSAT0204 (GALILEO 8),2015-017B,2026-07-10T08:17:21.294240,1.70475622,.00026381,56.7851,340.9839,235.0424,124.9287,0,U,40545,999,3264,0,-.81E-6,0
